[{"OBJECT_NAME":"LEMUR-2-ANDIS","OBJECT_ID":"2017-042P","EPOCH":"2026-03-09T13:25:33.116448","MEAN_MOTION":15.30557934,"ECCENTRICITY":0.0009101,"INCLINATION":97.3659,"RA_OF_ASC_NODE":249.795,"ARG_OF_PERICENTER":4.3248,"MEAN_ANOMALY":355.807,"EPHEMERIS_TYPE":0,"CLASSIFICATION_TYPE":"U","NORAD_CAT_ID":42838,"ELEMENT_SET_NO":999,"REV_AT_EPOCH":47319,"BSTAR":0.00079875,"MEAN_MOTION_DOT":0.00023598,"MEAN_MOTION_DDOT":0},{"OBJECT_NAME":"STARLINK-2705","OBJECT_ID":"2021-044AL","EPOCH":"2026-03-09T08:07:12.850752","MEAN_MOTION":15.31035302,"ECCENTRICITY":0.00015812,"INCLINATION":53.1598,"RA_OF_ASC_NODE":105.8091,"ARG_OF_PERICENTER":77.9359,"MEAN_ANOMALY":282.1819,"EPHEMERIS_TYPE":0,"CLASSIFICATION_TYPE":"U","NORAD_CAT_ID":48672,"ELEMENT_SET_NO":999,"REV_AT_EPOCH":26390,"BSTAR":-0.00015241071,"MEAN_MOTION_DOT":-4.992e-5,"MEAN_MOTION_DDOT":0}]
